[
  {
    "OBJECT_NAME": "STARLINK-31372",
    "OBJECT_ID": "24027J",
    "EPOCH": "2025-11-10T22:27:55.565856",
    "MEAN_MOTION": 15.30209754,
    "ECCENTRICITY": 0.0001552,
    "INCLINATION": 53.1586,
    "RA_OF_ASC_NODE": 141.4292,
    "ARG_OF_PERICENTER": 97.0468,
    "MEAN_ANOMALY": 263.071,
    "EPHEMERIS_TYPE": 0,
    "CLASSIFICATION_TYPE": "U",
    "NORAD_CAT_ID": 58939,
    "ELEMENT_SET_NO": 999,
    "REV_AT_EPOCH": 9914,
    "BSTAR": 0.0,
    "MEAN_MOTION_DOT": -2.652e-05,
    "MEAN_MOTION_DDOT": 0.0,
    "TLE_LINE1": "1 58939U 24027J   25314.93605979 -.00002652  00000+0 -77412-4 0  9993",
    "TLE_LINE2": "2 58939  53.1586 141.4292 0001552  97.0468 263.0710 15.30209754 99142",
    "COMMENT": "Grouped by shell and plane from TLE"
  },
  {
    "OBJECT_NAME": "STARLINK-31371",
    "OBJECT_ID": "24027K",
    "EPOCH": "2025-11-10T22:26:24.696384",
    "MEAN_MOTION": 15.30197944,
    "ECCENTRICITY": 0.0001591,
    "INCLINATION": 53.1589,
    "RA_OF_ASC_NODE": 141.4236,
    "ARG_OF_PERICENTER": 91.5574,
    "MEAN_ANOMALY": 268.5609,
    "EPHEMERIS_TYPE": 0,
    "CLASSIFICATION_TYPE": "U",
    "NORAD_CAT_ID": 58940,
    "ELEMENT_SET_NO": 999,
    "REV_AT_EPOCH": 9914,
    "BSTAR": 5.4704e-06,
    "MEAN_MOTION_DOT": -1.97e-06,
    "MEAN_MOTION_DDOT": 0.0,
    "TLE_LINE1": "1 58940U 24027K   25314.93500806 -.00000197  00000+0  54704-5 0  9999",
    "TLE_LINE2": "2 58940  53.1589 141.4236 0001591  91.5574 268.5609 15.30197944 99149",
    "COMMENT": "Grouped by shell and plane from TLE"
  },
  {
    "OBJECT_NAME": "STARLINK-31354",
    "OBJECT_ID": "24027M",
    "EPOCH": "2025-11-10T22:23:22.317216",
    "MEAN_MOTION": 15.30198104,
    "ECCENTRICITY": 0.0001425,
    "INCLINATION": 53.1609,
    "RA_OF_ASC_NODE": 141.4104,
    "ARG_OF_PERICENTER": 93.3706,
    "MEAN_ANOMALY": 266.7458,
    "EPHEMERIS_TYPE": 0,
    "CLASSIFICATION_TYPE": "U",
    "NORAD_CAT_ID": 58942,
    "ELEMENT_SET_NO": 999,
    "REV_AT_EPOCH": 9914,
    "BSTAR": 4.7163e-05,
    "MEAN_MOTION_DOT": 1.038e-05,
    "MEAN_MOTION_DDOT": 0.0,
    "TLE_LINE1": "1 58942U 24027M   25314.93289719  .00001038  00000+0  47163-4 0  9992",
    "TLE_LINE2": "2 58942  53.1609 141.4104 0001425  93.3706 266.7458 15.30198104 99142",
    "COMMENT": "Grouped by shell and plane from TLE"
  },
  {
    "OBJECT_NAME": "STARLINK-31336",
    "OBJECT_ID": "24027P",
    "EPOCH": "2025-11-10T19:27:25.707744",
    "MEAN_MOTION": 15.3019196,
    "ECCENTRICITY": 6.79e-05,
    "INCLINATION": 53.1578,
    "RA_OF_ASC_NODE": 142.0653,
    "ARG_OF_PERICENTER": 103.3537,
    "MEAN_ANOMALY": 256.7539,
    "EPHEMERIS_TYPE": 0,
    "CLASSIFICATION_TYPE": "U",
    "NORAD_CAT_ID": 58944,
    "ELEMENT_SET_NO": 999,
    "REV_AT_EPOCH": 9911,
    "BSTAR": 0.00011096000000000001,
    "MEAN_MOTION_DOT": 2.928e-05,
    "MEAN_MOTION_DDOT": 0.0,
    "TLE_LINE1": "1 58944U 24027P   25314.81071421  .00002928  00000+0  11096-3 0  9994",
    "TLE_LINE2": "2 58944  53.1578 142.0653 0000679 103.3537 256.7539 15.30191960 99118",
    "COMMENT": "Grouped by shell and plane from TLE"
  },
  {
    "OBJECT_NAME": "STARLINK-31294",
    "OBJECT_ID": "24027U",
    "EPOCH": "2025-11-10T19:35:01.431456",
    "MEAN_MOTION": 15.30199345,
    "ECCENTRICITY": 0.0001693,
    "INCLINATION": 53.1549,
    "RA_OF_ASC_NODE": 142.0993,
    "ARG_OF_PERICENTER": 92.3789,
    "MEAN_ANOMALY": 267.7406,
    "EPHEMERIS_TYPE": 0,
    "CLASSIFICATION_TYPE": "U",
    "NORAD_CAT_ID": 58949,
    "ELEMENT_SET_NO": 999,
    "REV_AT_EPOCH": 9912,
    "BSTAR": 2.1711e-05,
    "MEAN_MOTION_DOT": 2.84e-06,
    "MEAN_MOTION_DDOT": 0.0,
    "TLE_LINE1": "1 58949U 24027U   25314.81598879  .00000284  00000+0  21711-4 0  9999",
    "TLE_LINE2": "2 58949  53.1549 142.0993 0001693  92.3789 267.7406 15.30199345 99122",
    "COMMENT": "Grouped by shell and plane from TLE"
  },
  {
    "OBJECT_NAME": "STARLINK-31293",
    "OBJECT_ID": "24027X",
    "EPOCH": "2025-11-10T20:21:58.356576",
    "MEAN_MOTION": 15.3018878,
    "ECCENTRICITY": 0.0001906,
    "INCLINATION": 53.1581,
    "RA_OF_ASC_NODE": 141.5933,
    "ARG_OF_PERICENTER": 103.4266,
    "MEAN_ANOMALY": 256.6948,
    "EPHEMERIS_TYPE": 0,
    "CLASSIFICATION_TYPE": "U",
    "NORAD_CAT_ID": 58952,
    "ELEMENT_SET_NO": 999,
    "REV_AT_EPOCH": 9913,
    "BSTAR": 0.00011915000000000001,
    "MEAN_MOTION_DOT": 3.17e-05,
    "MEAN_MOTION_DDOT": 0.0,
    "TLE_LINE1": "1 58952U 24027X   25314.84859209  .00003170  00000+0  11915-3 0  9994",
    "TLE_LINE2": "2 58952  53.1581 141.5933 0001906 103.4266 256.6948 15.30188780 99131",
    "COMMENT": "Grouped by shell and plane from TLE"
  },
  {
    "OBJECT_NAME": "STARLINK-31565",
    "OBJECT_ID": "24057D",
    "EPOCH": "2025-11-10T20:05:37.416768",
    "MEAN_MOTION": 15.27582814,
    "ECCENTRICITY": 0.0001193,
    "INCLINATION": 42.9998,
    "RA_OF_ASC_NODE": 145.9474,
    "ARG_OF_PERICENTER": 270.2318,
    "MEAN_ANOMALY": 89.8397,
    "EPHEMERIS_TYPE": 0,
    "CLASSIFICATION_TYPE": "U",
    "NORAD_CAT_ID": 59323,
    "ELEMENT_SET_NO": 999,
    "REV_AT_EPOCH": 9157,
    "BSTAR": 6.6306e-05,
    "MEAN_MOTION_DOT": 1.563e-05,
    "MEAN_MOTION_DDOT": 0.0,
    "TLE_LINE1": "1 59323U 24057D   25314.83723862  .00001563  00000+0  66306-4 0  9993",
    "TLE_LINE2": "2 59323  42.9998 145.9474 0001193 270.2318  89.8397 15.27582814 91575",
    "COMMENT": "Grouped by shell and plane from TLE"
  },
  {
    "OBJECT_NAME": "STARLINK-31632",
    "OBJECT_ID": "24057G",
    "EPOCH": "2025-11-11T05:44:39.961824",
    "MEAN_MOTION": 15.27568715,
    "ECCENTRICITY": 0.0001671,
    "INCLINATION": 43.0016,
    "RA_OF_ASC_NODE": 147.2671,
    "ARG_OF_PERICENTER": 257.0547,
    "MEAN_ANOMALY": 103.0118,
    "EPHEMERIS_TYPE": 0,
    "CLASSIFICATION_TYPE": "U",
    "NORAD_CAT_ID": 59326,
    "ELEMENT_SET_NO": 999,
    "REV_AT_EPOCH": 9159,
    "BSTAR": 0.0,
    "MEAN_MOTION_DOT": -1.395e-05,
    "MEAN_MOTION_DDOT": 0.0,
    "TLE_LINE1": "1 59326U 24057G   25315.23935141 -.00001395  00000+0 -41170-4 0  9993",
    "TLE_LINE2": "2 59326  43.0016 147.2671 0001671 257.0547 103.0118 15.27568715 91599",
    "COMMENT": "Grouped by shell and plane from TLE"
  },
  {
    "OBJECT_NAME": "STARLINK-31594",
    "OBJECT_ID": "24057N",
    "EPOCH": "2025-11-11T05:50:13.662816",
    "MEAN_MOTION": 15.2756002,
    "ECCENTRICITY": 7.67e-05,
    "INCLINATION": 43.0005,
    "RA_OF_ASC_NODE": 147.2935,
    "ARG_OF_PERICENTER": 256.8366,
    "MEAN_ANOMALY": 103.24,
    "EPHEMERIS_TYPE": 0,
    "CLASSIFICATION_TYPE": "U",
    "NORAD_CAT_ID": 59332,
    "ELEMENT_SET_NO": 999,
    "REV_AT_EPOCH": 9159,
    "BSTAR": 0.00018173,
    "MEAN_MOTION_DOT": 4.739e-05,
    "MEAN_MOTION_DDOT": 0.0,
    "TLE_LINE1": "1 59332U 24057N   25315.24321369  .00004739  00000+0  18173-3 0  9991",
    "TLE_LINE2": "2 59332  43.0005 147.2935 0000767 256.8366 103.2400 15.27560020 91595",
    "COMMENT": "Grouped by shell and plane from TLE"
  },
  {
    "OBJECT_NAME": "STARLINK-31572",
    "OBJECT_ID": "24057P",
    "EPOCH": "2025-11-11T05:53:54.413088",
    "MEAN_MOTION": 15.27591018,
    "ECCENTRICITY": 4.84e-05,
    "INCLINATION": 43.0065,
    "RA_OF_ASC_NODE": 147.3106,
    "ARG_OF_PERICENTER": 79.8589,
    "MEAN_ANOMALY": 280.2317,
    "EPHEMERIS_TYPE": 0,
    "CLASSIFICATION_TYPE": "U",
    "NORAD_CAT_ID": 59333,
    "ELEMENT_SET_NO": 999,
    "REV_AT_EPOCH": 9159,
    "BSTAR": 0.00014038,
    "MEAN_MOTION_DOT": 3.604e-05,
    "MEAN_MOTION_DDOT": 0.0,
    "TLE_LINE1": "1 59333U 24057P   25315.24576867  .00003604  00000+0  14038-3 0  9993",
    "TLE_LINE2": "2 59333  43.0065 147.3106 0000484  79.8589 280.2317 15.27591018 91593",
    "COMMENT": "Grouped by shell and plane from TLE"
  },
  {
    "OBJECT_NAME": "STARLINK-31600",
    "OBJECT_ID": "24057X",
    "EPOCH": "2025-11-10T21:45:19.130688",
    "MEAN_MOTION": 15.27572765,
    "ECCENTRICITY": 0.0001584,
    "INCLINATION": 42.9993,
    "RA_OF_ASC_NODE": 145.6038,
    "ARG_OF_PERICENTER": 276.1827,
    "MEAN_ANOMALY": 83.8844,
    "EPHEMERIS_TYPE": 0,
    "CLASSIFICATION_TYPE": "U",
    "NORAD_CAT_ID": 59341,
    "ELEMENT_SET_NO": 999,
    "REV_AT_EPOCH": 9158,
    "BSTAR": 0.00010787,
    "MEAN_MOTION_DOT": 2.707e-05,
    "MEAN_MOTION_DDOT": 0.0,
    "TLE_LINE1": "1 59341U 24057X   25314.90647142  .00002707  00000+0  10787-3 0  9999",
    "TLE_LINE2": "2 59341  42.9993 145.6038 0001584 276.1827  83.8844 15.27572765 91583",
    "COMMENT": "Grouped by shell and plane from TLE"
  },
  {
    "OBJECT_NAME": "STARLINK-32033",
    "OBJECT_ID": "24120K",
    "EPOCH": "2025-11-11T05:57:01.444896",
    "MEAN_MOTION": 15.31033319,
    "ECCENTRICITY": 0.0001041,
    "INCLINATION": 53.16,
    "RA_OF_ASC_NODE": 149.9724,
    "ARG_OF_PERICENTER": 93.1232,
    "MEAN_ANOMALY": 266.9888,
    "EPHEMERIS_TYPE": 0,
    "CLASSIFICATION_TYPE": "U",
    "NORAD_CAT_ID": 60144,
    "ELEMENT_SET_NO": 999,
    "REV_AT_EPOCH": 7824,
    "BSTAR": 5.4511e-05,
    "MEAN_MOTION_DOT": 1.295e-05,
    "MEAN_MOTION_DDOT": 0.0,
    "TLE_LINE1": "1 60144U 24120K   25315.24793339  .00001295  00000+0  54511-4 0  9996",
    "TLE_LINE2": "2 60144  53.1600 149.9724 0001041  93.1232 266.9888 15.31033319 78241",
    "COMMENT": "Grouped by shell and plane from TLE"
  },
  {
    "OBJECT_NAME": "STARLINK-32019",
    "OBJECT_ID": "24120N",
    "EPOCH": "2025-11-11T05:41:38.904576",
    "MEAN_MOTION": 15.30196956,
    "ECCENTRICITY": 0.0001227,
    "INCLINATION": 53.1601,
    "RA_OF_ASC_NODE": 149.9026,
    "ARG_OF_PERICENTER": 102.0669,
    "MEAN_ANOMALY": 258.0469,
    "EPHEMERIS_TYPE": 0,
    "CLASSIFICATION_TYPE": "U",
    "NORAD_CAT_ID": 60147,
    "ELEMENT_SET_NO": 999,
    "REV_AT_EPOCH": 7824,
    "BSTAR": 0.00017580000000000002,
    "MEAN_MOTION_DOT": 4.85e-05,
    "MEAN_MOTION_DDOT": 0.0,
    "TLE_LINE1": "1 60147U 24120N   25315.23725584  .00004850  00000+0  17580-3 0  9999",
    "TLE_LINE2": "2 60147  53.1601 149.9026 0001227 102.0669 258.0469 15.30196956 78243",
    "COMMENT": "Grouped by shell and plane from TLE"
  }
]